[{"OBJECT_NAME":"ONEWEB-0218","OBJECT_ID":"2021-031E","EPOCH":"2025-10-08T05:27:39.082752","MEAN_MOTION":13.14501624,"ECCENTRICITY":0.00023605,"INCLINATION":87.9064,"RA_OF_ASC_NODE":339.8658,"ARG_OF_PERICENTER":121.0056,"MEAN_ANOMALY":239.1306,"EPHEMERIS_TYPE":0,"CLASSIFICATION_TYPE":"U","NORAD_CAT_ID":48214,"ELEMENT_SET_NO":999,"REV_AT_EPOCH":21527,"BSTAR":0.00062873324,"MEAN_MOTION_DOT":2.46e-6,"MEAN_MOTION_DDOT":0},{"OBJECT_NAME":"ONEWEB-0209","OBJECT_ID":"2021-031F","EPOCH":"2025-10-08T05:11:39.950304","MEAN_MOTION":13.14502492,"ECCENTRICITY":0.00021333,"INCLINATION":87.9058,"RA_OF_ASC_NODE":339.91,"ARG_OF_PERICENTER":96.8836,"MEAN_ANOMALY":263.2536,"EPHEMERIS_TYPE":0,"CLASSIFICATION_TYPE":"U","NORAD_CAT_ID":48215,"ELEMENT_SET_NO":999,"REV_AT_EPOCH":21527,"BSTAR":0.00023234607,"MEAN_MOTION_DOT":9.9e-7,"MEAN_MOTION_DDOT":0},{"OBJECT_NAME":"ONEWEB-0198","OBJECT_ID":"2021-031G","EPOCH":"2025-10-08T04:49:01.045056","MEAN_MOTION":13.14502903,"ECCENTRICITY":0.00023022,"INCLINATION":87.9054,"RA_OF_ASC_NODE":339.9117,"ARG_OF_PERICENTER":106.0331,"MEAN_ANOMALY":254.1053,"EPHEMERIS_TYPE":0,"CLASSIFICATION_TYPE":"U","NORAD_CAT_ID":48216,"ELEMENT_SET_NO":999,"REV_AT_EPOCH":21538,"BSTAR":-0.00037107479,"MEAN_MOTION_DOT":-1.25e-6,"MEAN_MOTION_DDOT":0},{"OBJECT_NAME":"ONEWEB-0189","OBJECT_ID":"2021-031H","EPOCH":"2025-10-08T05:07:06.077856","MEAN_MOTION":13.14503191,"ECCENTRICITY":0.00021907,"INCLINATION":87.9052,"RA_OF_ASC_NODE":339.8823,"ARG_OF_PERICENTER":105.8463,"MEAN_ANOMALY":254.2908,"EPHEMERIS_TYPE":0,"CLASSIFICATION_TYPE":"U","NORAD_CAT_ID":48217,"ELEMENT_SET_NO":999,"REV_AT_EPOCH":21512,"BSTAR":-2.0788738e-5,"MEAN_MOTION_DOT":5.0e-8,"MEAN_MOTION_DDOT":0},{"OBJECT_NAME":"ONEWEB-0196","OBJECT_ID":"2021-031J","EPOCH":"2025-10-08T04:35:07.485504","MEAN_MOTION":13.14502405,"ECCENTRICITY":0.00020494,"INCLINATION":87.9052,"RA_OF_ASC_NODE":339.9023,"ARG_OF_PERICENTER":100.2439,"MEAN_ANOMALY":259.8922,"EPHEMERIS_TYPE":0,"CLASSIFICATION_TYPE":"U","NORAD_CAT_ID":48218,"ELEMENT_SET_NO":999,"REV_AT_EPOCH":21512,"BSTAR":-0.00050041486,"MEAN_MOTION_DOT":-1.73e-6,"MEAN_MOTION_DDOT":0},{"OBJECT_NAME":"ONEWEB-0183","OBJECT_ID":"2021-031K","EPOCH":"2025-10-08T03:58:35.632416","MEAN_MOTION":13.14501895,"ECCENTRICITY":0.00019297,"INCLINATION":87.9054,"RA_OF_ASC_NODE":339.9162,"ARG_OF_PERICENTER":92.3296,"MEAN_ANOMALY":267.8055,"EPHEMERIS_TYPE":0,"CLASSIFICATION_TYPE":"U","NORAD_CAT_ID":48219,"ELEMENT_SET_NO":999,"REV_AT_EPOCH":21521,"BSTAR":0.00067100647,"MEAN_MOTION_DOT":2.62e-6,"MEAN_MOTION_DDOT":0},{"OBJECT_NAME":"ONEWEB-0185","OBJECT_ID":"2021-031L","EPOCH":"2025-10-08T04:36:15.631776","MEAN_MOTION":13.14504248,"ECCENTRICITY":0.0002155,"INCLINATION":87.9056,"RA_OF_ASC_NODE":339.8787,"ARG_OF_PERICENTER":91.4633,"MEAN_ANOMALY":268.6744,"EPHEMERIS_TYPE":0,"CLASSIFICATION_TYPE":"U","NORAD_CAT_ID":48220,"ELEMENT_SET_NO":999,"REV_AT_EPOCH":21514,"BSTAR":-0.00067213466,"MEAN_MOTION_DOT":-2.36e-6,"MEAN_MOTION_DDOT":0},{"OBJECT_NAME":"ONEWEB-0187","OBJECT_ID":"2021-031M","EPOCH":"2025-10-08T04:07:32.510784","MEAN_MOTION":13.14503249,"ECCENTRICITY":0.00021472,"INCLINATION":87.9057,"RA_OF_ASC_NODE":339.929,"ARG_OF_PERICENTER":97.6868,"MEAN_ANOMALY":262.4506,"EPHEMERIS_TYPE":0,"CLASSIFICATION_TYPE":"U","NORAD_CAT_ID":48221,"ELEMENT_SET_NO":999,"REV_AT_EPOCH":21515,"BSTAR":0.000356008,"MEAN_MOTION_DOT":1.45e-6,"MEAN_MOTION_DDOT":0},{"OBJECT_NAME":"ONEWEB-0192","OBJECT_ID":"2021-031N","EPOCH":"2025-10-08T05:13:56.887392","MEAN_MOTION":13.14501565,"ECCENTRICITY":0.00019217,"INCLINATION":87.905,"RA_OF_ASC_NODE":339.9124,"ARG_OF_PERICENTER":101.0125,"MEAN_ANOMALY":259.1221,"EPHEMERIS_TYPE":0,"CLASSIFICATION_TYPE":"U","NORAD_CAT_ID":48222,"ELEMENT_SET_NO":999,"REV_AT_EPOCH":21507,"BSTAR":-3.695647e-6,"MEAN_MOTION_DOT":1.1e-7,"MEAN_MOTION_DDOT":0},{"OBJECT_NAME":"ONEWEB-0219","OBJECT_ID":"2021-031P","EPOCH":"2025-10-08T04:44:15.536256","MEAN_MOTION":13.14501918,"ECCENTRICITY":0.00021272,"INCLINATION":87.9055,"RA_OF_ASC_NODE":339.8894,"ARG_OF_PERICENTER":95.5461,"MEAN_ANOMALY":264.5912,"EPHEMERIS_TYPE":0,"CLASSIFICATION_TYPE":"U","NORAD_CAT_ID":48223,"ELEMENT_SET_NO":999,"REV_AT_EPOCH":21527,"BSTAR":-0.00043136947,"MEAN_MOTION_DOT":-1.47e-6,"MEAN_MOTION_DDOT":0},{"OBJECT_NAME":"ONEWEB-0202","OBJECT_ID":"2021-031Q","EPOCH":"2025-10-08T04:16:51.808224","MEAN_MOTION":13.14501883,"ECCENTRICITY":0.00024014,"INCLINATION":87.9059,"RA_OF_ASC_NODE":339.9077,"ARG_OF_PERICENTER":114.2983,"MEAN_ANOMALY":245.8398,"EPHEMERIS_TYPE":0,"CLASSIFICATION_TYPE":"U","NORAD_CAT_ID":48224,"ELEMENT_SET_NO":999,"REV_AT_EPOCH":21525,"BSTAR":-1.4987633e-5,"MEAN_MOTION_DOT":7.0e-8,"MEAN_MOTION_DDOT":0},{"OBJECT_NAME":"ONEWEB-0204","OBJECT_ID":"2021-031R","EPOCH":"2025-10-08T05:05:56.948352","MEAN_MOTION":13.14502255,"ECCENTRICITY":0.00018615,"INCLINATION":87.9048,"RA_OF_ASC_NODE":339.8891,"ARG_OF_PERICENTER":89.06,"MEAN_ANOMALY":271.0743,"EPHEMERIS_TYPE":0,"CLASSIFICATION_TYPE":"U","NORAD_CAT_ID":48225,"ELEMENT_SET_NO":999,"REV_AT_EPOCH":21515,"BSTAR":-3.8956536e-5,"MEAN_MOTION_DOT":-2.0e-8,"MEAN_MOTION_DDOT":0},{"OBJECT_NAME":"ONEWEB-0205","OBJECT_ID":"2021-031S","EPOCH":"2025-10-08T04:30:33.655392","MEAN_MOTION":13.14502181,"ECCENTRICITY":0.00020738,"INCLINATION":87.9057,"RA_OF_ASC_NODE":339.8861,"ARG_OF_PERICENTER":97.0458,"MEAN_ANOMALY":263.0907,"EPHEMERIS_TYPE":0,"CLASSIFICATION_TYPE":"U","NORAD_CAT_ID":48226,"ELEMENT_SET_NO":999,"REV_AT_EPOCH":21516,"BSTAR":-0.0004621859,"MEAN_MOTION_DOT":-1.59e-6,"MEAN_MOTION_DDOT":0},{"OBJECT_NAME":"ONEWEB-0206","OBJECT_ID":"2021-031T","EPOCH":"2025-10-08T05:41:21.134688","MEAN_MOTION":13.14502801,"ECCENTRICITY":0.00016002,"INCLINATION":87.9065,"RA_OF_ASC_NODE":339.8611,"ARG_OF_PERICENTER":102.0756,"MEAN_ANOMALY":258.0553,"EPHEMERIS_TYPE":0,"CLASSIFICATION_TYPE":"U","NORAD_CAT_ID":48227,"ELEMENT_SET_NO":999,"REV_AT_EPOCH":21512,"BSTAR":0.00060634283,"MEAN_MOTION_DOT":2.38e-6,"MEAN_MOTION_DDOT":0},{"OBJECT_NAME":"ONEWEB-0182","OBJECT_ID":"2021-031U","EPOCH":"2025-10-08T03:44:53.676384","MEAN_MOTION":13.14501744,"ECCENTRICITY":0.00018966,"INCLINATION":87.9049,"RA_OF_ASC_NODE":339.918,"ARG_OF_PERICENTER":91.0559,"MEAN_ANOMALY":269.0788,"EPHEMERIS_TYPE":0,"CLASSIFICATION_TYPE":"U","NORAD_CAT_ID":48228,"ELEMENT_SET_NO":999,"REV_AT_EPOCH":21532,"BSTAR":0.00060382781,"MEAN_MOTION_DOT":2.37e-6,"MEAN_MOTION_DDOT":0},{"OBJECT_NAME":"ONEWEB-0186","OBJECT_ID":"2021-031V","EPOCH":"2025-10-08T04:00:52.243776","MEAN_MOTION":13.14501059,"ECCENTRICITY":0.00020153,"INCLINATION":87.9067,"RA_OF_ASC_NODE":339.8813,"ARG_OF_PERICENTER":98.2424,"MEAN_ANOMALY":261.8934,"EPHEMERIS_TYPE":0,"CLASSIFICATION_TYPE":"U","NORAD_CAT_ID":48229,"ELEMENT_SET_NO":999,"REV_AT_EPOCH":21527,"BSTAR":0.00047738348,"MEAN_MOTION_DOT":1.9e-6,"MEAN_MOTION_DDOT":0}]
