ONEWEB-0218             
1 48214U 21031E   25281.22753568  .00000246  00000+0  62873-3 0  9992
2 48214  87.9064 339.8658 0002360 121.0056 239.1306 13.14501624215271
ONEWEB-0209             
1 48215U 21031F   25281.21643461  .00000099  00000+0  23235-3 0  9997
2 48215  87.9058 339.9100 0002133  96.8836 263.2536 13.14502492215278
ONEWEB-0198             
1 48216U 21031G   25281.20070654 -.00000125  00000+0 -37107-3 0  9990
2 48216  87.9054 339.9117 0002302 106.0331 254.1053 13.14502903215387
ONEWEB-0189             
1 48217U 21031H   25281.21326479  .00000005  00000+0 -20789-4 0  9996
2 48217  87.9052 339.8823 0002190 105.8463 254.2908 13.14503191215129
ONEWEB-0196             
1 48218U 21031J   25281.19105886 -.00000173  00000+0 -50041-3 0  9991
2 48218  87.9052 339.9023 0002049 100.2439 259.8922 13.14502405215122
ONEWEB-0183             
1 48219U 21031K   25281.16569019  .00000262  00000+0  67101-3 0  9993
2 48219  87.9054 339.9162 0001929  92.3296 267.8055 13.14501895215215
ONEWEB-0185             
1 48220U 21031L   25281.19184759 -.00000236  00000+0 -67213-3 0  9999
2 48220  87.9056 339.8787 0002155  91.4633 268.6744 13.14504248215149
ONEWEB-0187             
1 48221U 21031M   25281.17190406  .00000145  00000+0  35601-3 0  9997
2 48221  87.9057 339.9290 0002147  97.6868 262.4506 13.14503249215159
ONEWEB-0192             
1 48222U 21031N   25281.21801953  .00000011  00000+0 -36956-5 0  9998
2 48222  87.9050 339.9124 0001921 101.0125 259.1221 13.14501565215071
ONEWEB-0219             
1 48223U 21031P   25281.19740204 -.00000147  00000+0 -43137-3 0  9995
2 48223  87.9055 339.8894 0002127  95.5461 264.5912 13.14501918215270
ONEWEB-0202             
1 48224U 21031Q   25281.17837741  .00000007  00000+0 -14988-4 0  9994
2 48224  87.9059 339.9077 0002401 114.2983 245.8398 13.14501883215251
ONEWEB-0204             
1 48225U 21031R   25281.21246468 -.00000002  00000+0 -38957-4 0  9998
2 48225  87.9048 339.8891 0001861  89.0600 271.0743 13.14502255215155
ONEWEB-0205             
1 48226U 21031S   25281.18788953 -.00000159  00000+0 -46219-3 0  9997
2 48226  87.9057 339.8861 0002073  97.0458 263.0907 13.14502181215161
ONEWEB-0206             
1 48227U 21031T   25281.23705017  .00000238  00000+0  60634-3 0  9997
2 48227  87.9065 339.8611 0001600 102.0756 258.0553 13.14502801215123
ONEWEB-0182             
1 48228U 21031U   25281.15617681  .00000237  00000+0  60383-3 0  9998
2 48228  87.9049 339.9180 0001896  91.0559 269.0788 13.14501744215322
ONEWEB-0186             
1 48229U 21031V   25281.16727134  .00000190  00000+0  47738-3 0  9992
2 48229  87.9067 339.8813 0002015  98.2424 261.8934 13.14501059215275
